#aV2024  7  8  0  0  0.00000000     288 DD+AD WGS84 FIT  NGA
## 2322  86400.00000000   300.00000000 60499 0.0000000000000
+   31     2  3  4  5  6  7  8  9 10 11 12 13 14 15 16 17 18
+         19 20 21 22 23 24 25 26 27 28 29 30 31 32  0  0  0
+          0  0  0  0  0  0  0  0  0  0  0  0  0  0  0  0  0
+          0  0  0  0  0  0  0  0  0  0  0  0  0  0  0  0  0
+          0  0  0  0  0  0  0  0  0  0  0  0  0  0  0  0  0
++         2  2  2  2  2  2  2  2  2  2  2  2  2  2  2  2  2
++         2  2  2  2  2  2  2  2  2  2  2  2  2  2  0  0  0
++         0  0  0  0  0  0  0  0  0  0  0  0  0  0  0  0  0
++         0  0  0  0  0  0  0  0  0  0  0  0  0  0  0  0  0
++         0  0  0  0  0  0  0  0  0  0  0  0  0  0  0  0  0
%c cc cc ccc ccc cccc cccc cccc cccc ccccc ccccc ccccc ccccc
%c cc cc ccc ccc cccc cccc cccc cccc ccccc ccccc ccccc ccccc
%f  0.0000000  0.000000000  0.00000000000  0.000000000000000
%f  0.0000000  0.000000000  0.00000000000  0.000000000000000
%i    0    0    0    0      0      0      0      0         0
%i    0    0    0    0      0      0      0      0         0
/*      NGA, ST. LOUIS,MO.                                  
/*   EPHEMERIS COMPUTED FROM 2 DAYS OF DATA                 
/*   EPOCHA v9 SMOOTHER                                     
/*   G2296 IERS2010 SATIGS SATAPC                           
*  2024  7  8  8  0  0.00000000
P  2  14132.535768 -22068.302433  -2664.964502   -403.139388                    
V  2   4711.887162  -1469.412901  31858.313973      0.072838                    
P  3   6765.951506 -13500.526794 -22000.488513    448.770309                    
V  3  26843.691440   5923.935809   4770.045673      0.166072                    
P  4   2834.037460 -22754.444851 -13270.006775    399.387334                    
V  4   6932.511496  15593.359462 -25359.238014      0.078408                    
P  5 -21674.599871   6254.947687  13900.804943   -179.011595                    
V  5 -17409.005689  -4611.115171 -24662.925237     -0.013154                    
P  6 -15402.274574  -3832.142475 -21256.011624    174.173924                    
V  6  17838.025632 -20315.124352  -9132.357422     -0.224362                    
P  7  -1066.986837 -19068.703283  18786.559873    -74.459025                    
V  7  16535.844922 -16063.205360 -16269.233489      0.081260                    
P  8   9884.780214 -14115.263323  19983.955289    265.069310                    
V  8  10321.916228  23652.161810  11956.619662      0.166539                    
P  9  -7144.382542 -25409.575539  -2771.646500    264.790173                    
V  9   3881.780272   2233.932215 -31496.316963      0.149490                    
P 10  22807.382321  10791.802015   9018.442459    -60.835403                    
V 10 -11126.047898   -669.156378  29306.783635     -0.094046                    
P 11 -21248.909030   8689.901318 -13283.631555   -700.876762                    
V 11  10247.310751 -13634.012594 -25321.648538     -0.071248                    
P 12 -10339.426976  12533.354339 -21281.384311   -520.523723                    
V 12 -25250.140113  -7679.318675   7895.175683     -0.031191                    
P 13 -14094.034426   5163.375119  21682.888156    663.149117                    
V 13  -5406.845443 -27505.037237   3236.878151      0.024990                    
P 14 -19964.876117 -13252.302589  11728.839893    443.788606                    
V 14  14993.690203    751.786920  26244.892703      0.089484                    
P 15  -7993.698507  15618.548630  19383.379407    178.718516                    
V 15 -13297.131182 -22234.235387  12304.793439      0.042382                    
P 16  24140.761680  -1001.030230  11186.728633   -242.658661                    
V 16  13345.139170   6201.944189 -26991.864668      0.106477                    
P 17 -13012.838730 -20242.986524 -10639.117859    681.617223                    
V 17  -1290.749876 -14335.897169  27930.653090     -0.071499                    
P 18    693.474211  18398.653218  19076.031326   -634.183471                    
V 18 -17335.337121  16980.294740 -15958.829275     -0.042315                    
P 19 -15400.991543 -12818.648782 -17806.444542    507.409832                    
V 19  -3572.189105 -21844.742014  18597.426519      0.054158                    
P 20 -25978.883267   2572.450230   4489.128022    372.993970                    
V 20  -5577.945157  -3215.704867 -31019.364610     -0.004166                    
P 21  16766.481084 -19733.915694   2666.519940    110.338835                    
V 21   1186.704703   4553.274350  32211.477167     -0.025091                    
P 22 -23839.939248 -10527.725776   4647.569286    -36.996769                    
V 22   6050.886031  -1274.699108  31212.600233     -0.046432                    
P 23  13174.287604  14566.204721  18001.397577    268.756108                    
V 23 -22545.979237  -2766.648164  18562.953082      0.089670                    
P 24 -14360.732821  22034.061272  -1742.230368   -482.135889                    
V 24  -4271.357047   -936.454612  31305.461052     -0.018304                    
P 25   1890.453585  15985.057019 -21496.398260    498.290230                    
V 25 -26147.356721  -4422.367096  -5420.378442      0.004003                    
P 26  26318.422579   4550.004851  -1853.744501    123.757413                    
V 26  -2552.814582   3144.769602 -30717.949631     -0.067588                    
P 27  15131.299644  -2037.456457  21472.765011    -30.576534                    
V 27   8944.042887  26449.621203  -3331.394436     -0.010066                    
P 28  14354.609373   6194.001649 -21481.199135   -322.271637                    
V 28 -17029.033059  21282.219687  -5244.452038     -0.161037                    
P 29   2547.417160  25774.556023  -5623.306978   -590.601213                    
V 29  -4169.420278  -6263.247255 -30990.518292      0.018877                    
P 30 -10831.600306 -11617.567706  21426.448506   -361.428048                    
V 30  18120.226773 -19978.671575  -1951.116550      0.064385                    
P 31  20439.286710  -4585.551858 -16772.789101   -226.920341                    
V 31 -12879.826220  16355.641977 -20047.658335      0.002652                    
P 32  15177.303957  18123.506756 -12093.596422   -613.212117                    
V 32   3013.302202  15480.811407  26319.051206      0.017875                    
EOF
